COSMOS 2058             
1 20465U 90010A   26076.85785259  .00003149  00000+0  18478-3 0  9994
2 20465  82.4668  39.3783 0008238 316.2292  43.8284 15.11393721943471
SL-14 R/B               
1 20466U 90010B   26076.78046929  .00000429  00000+0  49105-4 0  9991
2 20466  82.4987 259.7863 0018322 273.5806  86.3314 14.83576158929682
SL-14 R/B               
1 20511U 90018B   26076.87359243  .00000433  00000+0  51247-4 0  9991
2 20511  82.5218 215.4407 0017520  67.2365 293.0698 14.82153577923794
HST                     
1 20580U 90037B   26076.83763557  .00006018  00000+0  19603-3 0  9995
2 20580  28.4724 344.4119 0001653 210.6835 149.3664 15.29612827774565
SL-16 R/B               
1 20625U 90046B   26076.82675713  .00000046  00000+0  48455-4 0  9993
2 20625  70.9971 280.8239 0016131 288.7722  71.1650 14.15011134849541
COSMOS 2084             
1 20663U 90055A   26076.89080022  .00001704  00000+0  13099-3 0  9992
2 20663  62.7906 307.6069 0015794 192.2537 167.8182 15.05696107937557
SL-6 R/B(2)             
1 20666U 90055D   26076.41915128  .00001776  00000+0  14294-3 0  9994
2 20666  62.7822 227.5634 0026034 348.8994  11.1527 15.03633155939356
SL-8 R/B                
1 20775U 90078B   26076.83990360  .00010550  00000+0  31121-3 0  9995
2 20775  82.9000 243.9781 0360457 346.5670  12.6136 14.89329753810517
SL-8 R/B                
1 21088U 91006B   26076.53156301  .00000076  00000+0  61231-4 0  9999
2 21088  82.9460 164.2162 0022602  16.9308 353.8385 13.77495292765159
OKEAN-3                 
1 21397U 91039A   26076.65830763  .00002176  00000+0  15179-3 0  9994
2 21397  82.5198 329.1249 0013149 307.4541  52.5489 15.04862760866236
COSMOS 2151             
1 21422U 91042A   26076.82110592  .00001912  00000+0  15083-3 0  9998
2 21422  82.4931  75.8297 0013477  38.7491 321.4697 15.00138451864415
SL-14 R/B               
1 21423U 91042B   26076.86081624  .00000437  00000+0  52322-4 0  9995
2 21423  82.4938 212.5205 0016288 210.0281 150.0001 14.81838107854289
