CCSDS_OMM_VERS = 2.0
CREATION_DATE  = 
ORIGINATOR     = 

OBJECT_NAME    = COSMOS 2058
OBJECT_ID      = 1990-010A
CENTER_NAME    = EARTH
REF_FRAME      = TEME
TIME_SYSTEM    = UTC
MEAN_ELEMENT_THEORY = SGP/SGP4

EPOCH          = 2026-03-17T20:35:18.463776
MEAN_MOTION    = 15.11393721
ECCENTRICITY   = .0008238
INCLINATION    = 82.4668
RA_OF_ASC_NODE = 39.3783
ARG_OF_PERICENTER = 316.2292
MEAN_ANOMALY   = 43.8284

EPHEMERIS_TYPE = 0
CLASSIFICATION_TYPE = U
NORAD_CAT_ID   = 20465
ELEMENT_SET_NO = 999
REV_AT_EPOCH   = 94347
BSTAR          = .18478E-3
MEAN_MOTION_DOT = .3149E-4
MEAN_MOTION_DDOT = 0

CCSDS_OMM_VERS = 2.0
CREATION_DATE  = 
ORIGINATOR     = 

OBJECT_NAME    = SL-14 R/B
OBJECT_ID      = 1990-010B
CENTER_NAME    = EARTH
REF_FRAME      = TEME
TIME_SYSTEM    = UTC
MEAN_ELEMENT_THEORY = SGP/SGP4

EPOCH          = 2026-03-17T18:43:52.546656
MEAN_MOTION    = 14.83576158
ECCENTRICITY   = .0018322
INCLINATION    = 82.4987
RA_OF_ASC_NODE = 259.7863
ARG_OF_PERICENTER = 273.5806
MEAN_ANOMALY   = 86.3314

EPHEMERIS_TYPE = 0
CLASSIFICATION_TYPE = U
NORAD_CAT_ID   = 20466
ELEMENT_SET_NO = 999
REV_AT_EPOCH   = 92968
BSTAR          = .49105E-4
MEAN_MOTION_DOT = .429E-5
MEAN_MOTION_DDOT = 0

CCSDS_OMM_VERS = 2.0
CREATION_DATE  = 
ORIGINATOR     = 

OBJECT_NAME    = SL-14 R/B
OBJECT_ID      = 1990-018B
CENTER_NAME    = EARTH
REF_FRAME      = TEME
TIME_SYSTEM    = UTC
MEAN_ELEMENT_THEORY = SGP/SGP4

EPOCH          = 2026-03-17T20:57:58.385952
MEAN_MOTION    = 14.82153577
ECCENTRICITY   = .001752
INCLINATION    = 82.5218
RA_OF_ASC_NODE = 215.4407
ARG_OF_PERICENTER = 67.2365
MEAN_ANOMALY   = 293.0698

EPHEMERIS_TYPE = 0
CLASSIFICATION_TYPE = U
NORAD_CAT_ID   = 20511
ELEMENT_SET_NO = 999
REV_AT_EPOCH   = 92379
BSTAR          = .51247E-4
MEAN_MOTION_DOT = .433E-5
MEAN_MOTION_DDOT = 0

CCSDS_OMM_VERS = 2.0
CREATION_DATE  = 
ORIGINATOR     = 

OBJECT_NAME    = HST
OBJECT_ID      = 1990-037B
CENTER_NAME    = EARTH
REF_FRAME      = TEME
TIME_SYSTEM    = UTC
MEAN_ELEMENT_THEORY = SGP/SGP4

EPOCH          = 2026-03-17T20:06:11.713248
MEAN_MOTION    = 15.29612827
ECCENTRICITY   = .0001653
INCLINATION    = 28.4724
RA_OF_ASC_NODE = 344.4119
ARG_OF_PERICENTER = 210.6835
MEAN_ANOMALY   = 149.3664

EPHEMERIS_TYPE = 0
CLASSIFICATION_TYPE = U
NORAD_CAT_ID   = 20580
ELEMENT_SET_NO = 999
REV_AT_EPOCH   = 77456
BSTAR          = .19603E-3
MEAN_MOTION_DOT = .6018E-4
MEAN_MOTION_DDOT = 0

CCSDS_OMM_VERS = 2.0
CREATION_DATE  = 
ORIGINATOR     = 

OBJECT_NAME    = SL-16 R/B
OBJECT_ID      = 1990-046B
CENTER_NAME    = EARTH
REF_FRAME      = TEME
TIME_SYSTEM    = UTC
MEAN_ELEMENT_THEORY = SGP/SGP4

EPOCH          = 2026-03-17T19:50:31.816032
MEAN_MOTION    = 14.15011134
ECCENTRICITY   = .0016131
INCLINATION    = 70.9971
RA_OF_ASC_NODE = 280.8239
ARG_OF_PERICENTER = 288.7722
MEAN_ANOMALY   = 71.1650

EPHEMERIS_TYPE = 0
CLASSIFICATION_TYPE = U
NORAD_CAT_ID   = 20625
ELEMENT_SET_NO = 999
REV_AT_EPOCH   = 84954
BSTAR          = .48455E-4
MEAN_MOTION_DOT = .46E-6
MEAN_MOTION_DDOT = 0

CCSDS_OMM_VERS = 2.0
CREATION_DATE  = 
ORIGINATOR     = 

OBJECT_NAME    = COSMOS 2084
OBJECT_ID      = 1990-055A
CENTER_NAME    = EARTH
REF_FRAME      = TEME
TIME_SYSTEM    = UTC
MEAN_ELEMENT_THEORY = SGP/SGP4

EPOCH          = 2026-03-17T21:22:45.139008
MEAN_MOTION    = 15.05696107
ECCENTRICITY   = .0015794
INCLINATION    = 62.7906
RA_OF_ASC_NODE = 307.6069
ARG_OF_PERICENTER = 192.2537
MEAN_ANOMALY   = 167.8182

EPHEMERIS_TYPE = 0
CLASSIFICATION_TYPE = U
NORAD_CAT_ID   = 20663
ELEMENT_SET_NO = 999
REV_AT_EPOCH   = 93755
BSTAR          = .13099E-3
MEAN_MOTION_DOT = .1704E-4
MEAN_MOTION_DDOT = 0

CCSDS_OMM_VERS = 2.0
CREATION_DATE  = 
ORIGINATOR     = 

OBJECT_NAME    = SL-6 R/B(2)
OBJECT_ID      = 1990-055D
CENTER_NAME    = EARTH
REF_FRAME      = TEME
TIME_SYSTEM    = UTC
MEAN_ELEMENT_THEORY = SGP/SGP4

EPOCH          = 2026-03-17T10:03:34.670592
MEAN_MOTION    = 15.03633155
ECCENTRICITY   = .00260348
INCLINATION    = 62.7822
RA_OF_ASC_NODE = 227.5634
ARG_OF_PERICENTER = 348.8994
MEAN_ANOMALY   = 11.1527

EPHEMERIS_TYPE = 0
CLASSIFICATION_TYPE = U
NORAD_CAT_ID   = 20666
ELEMENT_SET_NO = 999
REV_AT_EPOCH   = 93935
BSTAR          = .14293527E-3
MEAN_MOTION_DOT = .1776E-4
MEAN_MOTION_DDOT = 0

CCSDS_OMM_VERS = 2.0
CREATION_DATE  = 
ORIGINATOR     = 

OBJECT_NAME    = SL-8 R/B
OBJECT_ID      = 1990-078B
CENTER_NAME    = EARTH
REF_FRAME      = TEME
TIME_SYSTEM    = UTC
MEAN_ELEMENT_THEORY = SGP/SGP4

EPOCH          = 2026-03-17T20:09:27.671040
MEAN_MOTION    = 14.89329753
ECCENTRICITY   = .0360457
INCLINATION    = 82.9000
RA_OF_ASC_NODE = 243.9781
ARG_OF_PERICENTER = 346.5670
MEAN_ANOMALY   = 12.6136

EPHEMERIS_TYPE = 0
CLASSIFICATION_TYPE = U
NORAD_CAT_ID   = 20775
ELEMENT_SET_NO = 999
REV_AT_EPOCH   = 81051
BSTAR          = .31121E-3
MEAN_MOTION_DOT = .1055E-3
MEAN_MOTION_DDOT = 0

CCSDS_OMM_VERS = 2.0
CREATION_DATE  = 
ORIGINATOR     = 

OBJECT_NAME    = SL-8 R/B
OBJECT_ID      = 1991-006B
CENTER_NAME    = EARTH
REF_FRAME      = TEME
TIME_SYSTEM    = UTC
MEAN_ELEMENT_THEORY = SGP/SGP4

EPOCH          = 2026-03-17T12:45:27.044064
MEAN_MOTION    = 13.77495292
ECCENTRICITY   = .00226029
INCLINATION    = 82.9460
RA_OF_ASC_NODE = 164.2162
ARG_OF_PERICENTER = 16.9308
MEAN_ANOMALY   = 353.8385

EPHEMERIS_TYPE = 0
CLASSIFICATION_TYPE = U
NORAD_CAT_ID   = 21088
ELEMENT_SET_NO = 999
REV_AT_EPOCH   = 76515
BSTAR          = .61231104E-4
MEAN_MOTION_DOT = .76E-6
MEAN_MOTION_DDOT = 0

CCSDS_OMM_VERS = 2.0
CREATION_DATE  = 
ORIGINATOR     = 

OBJECT_NAME    = OKEAN-3
OBJECT_ID      = 1991-039A
CENTER_NAME    = EARTH
REF_FRAME      = TEME
TIME_SYSTEM    = UTC
MEAN_ELEMENT_THEORY = SGP/SGP4

EPOCH          = 2026-03-17T15:47:57.779232
MEAN_MOTION    = 15.04862760
ECCENTRICITY   = .00131494
INCLINATION    = 82.5198
RA_OF_ASC_NODE = 329.1249
ARG_OF_PERICENTER = 307.4541
MEAN_ANOMALY   = 52.5489

EPHEMERIS_TYPE = 0
CLASSIFICATION_TYPE = U
NORAD_CAT_ID   = 21397
ELEMENT_SET_NO = 999
REV_AT_EPOCH   = 86623
BSTAR          = .15179104E-3
MEAN_MOTION_DOT = .2176E-4
MEAN_MOTION_DDOT = 0

CCSDS_OMM_VERS = 2.0
CREATION_DATE  = 
ORIGINATOR     = 

OBJECT_NAME    = COSMOS 2151
OBJECT_ID      = 1991-042A
CENTER_NAME    = EARTH
REF_FRAME      = TEME
TIME_SYSTEM    = UTC
MEAN_ELEMENT_THEORY = SGP/SGP4

EPOCH          = 2026-03-17T19:42:23.551488
MEAN_MOTION    = 15.00138451
ECCENTRICITY   = .0013477
INCLINATION    = 82.4931
RA_OF_ASC_NODE = 75.8297
ARG_OF_PERICENTER = 38.7491
MEAN_ANOMALY   = 321.4697

EPHEMERIS_TYPE = 0
CLASSIFICATION_TYPE = U
NORAD_CAT_ID   = 21422
ELEMENT_SET_NO = 999
REV_AT_EPOCH   = 86441
BSTAR          = .15083E-3
MEAN_MOTION_DOT = .1912E-4
MEAN_MOTION_DDOT = 0

CCSDS_OMM_VERS = 2.0
CREATION_DATE  = 
ORIGINATOR     = 

OBJECT_NAME    = SL-14 R/B
OBJECT_ID      = 1991-042B
CENTER_NAME    = EARTH
REF_FRAME      = TEME
TIME_SYSTEM    = UTC
MEAN_ELEMENT_THEORY = SGP/SGP4

EPOCH          = 2026-03-17T20:39:34.523136
MEAN_MOTION    = 14.81838107
ECCENTRICITY   = .0016288
INCLINATION    = 82.4938
RA_OF_ASC_NODE = 212.5205
ARG_OF_PERICENTER = 210.0281
MEAN_ANOMALY   = 150.0001

EPHEMERIS_TYPE = 0
CLASSIFICATION_TYPE = U
NORAD_CAT_ID   = 21423
ELEMENT_SET_NO = 999
REV_AT_EPOCH   = 85428
BSTAR          = .52322E-4
MEAN_MOTION_DOT = .437E-5
MEAN_MOTION_DDOT = 0

